{
    "links": {
        "self": "http://www.neowsapp.com/rest/v1/neo/3772979?api_key=iIulBulltgU6a56xZRHN4H3l9WmuAYTsLGpBGhQ2"
    },
    "id": "3772979",
    "neo_reference_id": "3772979",
    "name": "(2017 FD101)",
    "designation": "2017 FD101",
    "nasa_jpl_url": "http://ssd.jpl.nasa.gov/sbdb.cgi?sstr=3772979",
    "absolute_magnitude_h": 20.8,
    "estimated_diameter": {
        "kilometers": {
            "estimated_diameter_min": 0.1838886721,
            "estimated_diameter_max": 0.411187571
        },
        "meters": {
            "estimated_diameter_min": 183.8886720703,
            "estimated_diameter_max": 411.1875710413
        },
        "miles": {
            "estimated_diameter_min": 0.1142630881,
            "estimated_diameter_max": 0.2555000322
        },
        "feet": {
            "estimated_diameter_min": 603.309310875,
            "estimated_diameter_max": 1349.040630575
        }
    },
    "is_potentially_hazardous_asteroid": false,
    "close_approach_data": [
        {
            "close_approach_date": "2017-02-25",
            "close_approach_date_full": "2017-Feb-25 16:12",
            "epoch_date_close_approach": 1488039120000,
            "relative_velocity": {
                "kilometers_per_second": "18.1191415774",
                "kilometers_per_hour": "65228.90967851",
                "miles_per_hour": "40530.7077944053"
            },
            "miss_distance": {
                "astronomical": "0.4102375667",
                "lunar": "159.5824134463",
                "kilometers": "61370666.172302929",
                "miles": "38133963.6640772602"
            },
            "orbiting_body": "Earth"
        }
    ],
    "orbital_data": {
        "orbit_id": "3",
        "orbit_determination_date": "2017-04-06 08:19:03",
        "first_observation_date": "2017-03-23",
        "last_observation_date": "2017-03-30",
        "data_arc_in_days": 7,
        "observations_used": 23,
        "orbit_uncertainty": "8",
        "minimum_orbit_intersection": ".27743",
        "jupiter_tisserand_invariant": "3.887",
        "epoch_osculation": "2457836.5",
        "eccentricity": ".3160702483178295",
        "semi_major_axis": "1.735325359880011",
        "inclination": "35.82280501186455",
        "ascending_node_longitude": "341.932245617875",
        "orbital_period": "834.9679340096682",
        "perihelion_distance": "1.186840642470509",
        "perihelion_argument": "133.5341900936915",
        "aphelion_distance": "2.283810077289512",
        "perihelion_time": "2457743.203414142800",
        "mean_anomaly": "40.225222479266",
        "mean_motion": ".431154281903036",
        "equinox": "J2000",
        "orbit_class": {
            "orbit_class_type": "AMO",
            "orbit_class_description": "Near-Earth asteroid orbits similar to that of 1221 Amor",
            "orbit_class_range": "1.017 AU < q (perihelion) < 1.3 AU"
        }
    },
    "is_sentry_object": false
}